NORAD_CAT_ID,OBJECT_NAME,OBJECT_TYPE,EPOCH,MEAN_MOTION,ECCENTRICITY,INCLINATION,RA_OF_ASC_NODE,ARG_OF_PERICENTER,MEAN_ANOMALY,BSTAR,MEAN_MOTION_DOT,MEAN_MOTION_DDOT,TLE_LINE0,TLE_LINE1,TLE_LINE2,SEMIMAJOR_AXIS,PERIOD,APOGEE,PERIGEE,DECAYED
49730.0,STARLINK-3249,PAYLOAD,2023-02-13 18:57:58,15.08378277,0.0001438,53.2164,146.5484,79.7896,280.3258,-0.012744,-0.00195179,0.0,0 STARLINK-3249,1 49730U 21115G   23044.79026605 -.00195179  00000-0 -12744-1 0  9994,2 49730  53.2164 146.5484 0001438  79.7896 280.3258 15.08378277 67436,6919.292,95.467,542.152,540.162,0.0
49730.0,STARLINK-3249,PAYLOAD,2023-02-13 20:33:25,15.08296074,0.000133,53.2162,146.2509,95.7025,264.4119,-0.014908,-0.00226761,0.0,0 STARLINK-3249,1 49730U 21115G   23044.85654107 -.00226761  00000-0 -14908-1 0  9991,2 49730  53.2162 146.2509 0001330  95.7025 264.4119 15.08296074 67446,6919.543,95.472,542.329,540.488,0.0
49730.0,STARLINK-3249,PAYLOAD,2023-02-14 18:49:31,15.08045537,0.0001961,53.2159,142.0907,133.5058,226.6097,0.0013853,0.00021354,0.0,0 STARLINK-3249,1 49730U 21115G   23045.78439661  .00021354  00000-0  13853-2 0  9998,2 49730  53.2159 142.0907 0001961 133.5058 226.6097 15.08045537 67581,6920.31,95.488,543.532,540.818,0.0
49730.0,STARLINK-3249,PAYLOAD,2023-02-17 19:57:40,15.08883306,0.0001597,53.2172,128.4119,69.4134,290.703,0.0012971,0.0002044,0.0,0 STARLINK-3249,1 49730U 21115G   23048.83171602  .00020440  00000-0  12971-2 0  9990,2 49730  53.2172 128.4119 0001597  69.4134 290.7030 15.08883306 68041,6917.748,95.435,540.718,538.508,0.0
49730.0,STARLINK-3249,PAYLOAD,2023-02-18 06:00:00,15.08813411,0.0001391,53.2177,126.5358,93.93,19.4726,0.0016139,0.00025472,0.0,0 STARLINK-3249,1 49730U 21115G   23049.25001157  .00025472  00000-0  16139-2 0  9994,2 49730  53.2177 126.5358 0001391  93.9300  19.4726 15.08813411 68104,6917.962,95.439,540.789,538.864,0.0
49730.0,STARLINK-3249,PAYLOAD,2023-02-18 11:51:32,15.08822251,8.35e-05,53.2192,125.4404,57.1449,302.9623,4.456e-05,4.21e-06,0.0,0 STARLINK-3249,1 49730U 21115G   23049.49412929  .00000421  00000-0  44560-4 0  9991,2 49730  53.2192 125.4404 0000835  57.1449 302.9623 15.08822251 67038,6917.935,95.439,540.377,539.222,0.0
49730.0,STARLINK-3249,PAYLOAD,2023-02-19 08:00:01,15.08903304,0.0001279,53.2174,121.6737,95.2598,145.8122,-0.0039843,-0.0006325,0.0,0 STARLINK-3249,1 49730U 21115G   23050.33334491 -.00063250  00000-0 -39843-2 0  9990,2 49730  53.2174 121.6737 0001279  95.2598 145.8122 15.08903304 68270,6917.687,95.434,540.437,538.667,0.0
49730.0,STARLINK-3249,PAYLOAD,2023-02-19 14:00:01,15.08852111,0.0001134,53.2173,120.5524,87.4976,72.3221,-0.0025115,-0.00040049,0.0,0 STARLINK-3249,1 49730U 21115G   23050.58334491 -.00040049  00000-0 -25115-2 0  9995,2 49730  53.2173 120.5524 0001134  87.4976  72.3221 15.08852111  1308,6917.843,95.437,540.493,538.924,0.0
49730.0,STARLINK-3249,PAYLOAD,2023-02-20 10:00:00,15.08898387,0.0001084,53.2166,116.811,100.5286,268.2839,-0.0072331,-0.00113768,0.0,0 STARLINK-3249,1 49730U 21115G   23051.41667824 -.00113768  00000-0 -72331-2 0  9998,2 49730  53.2166 116.8110 0001084 100.5286 268.2839 15.08898387 68437,6917.702,95.434,540.317,538.817,0.0
49730.0,STARLINK-3249,PAYLOAD,2023-02-20 14:00:01,15.08827677,0.0001075,53.2166,116.0633,100.0731,94.5694,-0.0010544,-0.00017023,0.0,0 STARLINK-3249,1 49730U 21115G   23051.58334491 -.00017023  00000-0 -10544-2 0  9992,2 49730  53.2166 116.0633 0001075 100.0731  94.5694 15.08827677  1305,6917.918,95.438,540.527,539.039,0.0
49730.0,STARLINK-3249,PAYLOAD,2023-02-21 00:00:00,15.08799214,0.0001151,53.2161,114.1909,116.5315,182.5859,0.0040893,0.00065323,0.0,0 STARLINK-3249,1 49730U 21115G   23052.00001157  .00065323  00000-0  40893-2 0  9994,2 49730  53.2161 114.1909 0001151 116.5315 182.5859 15.08799214 68523,6918.005,95.44,540.666,539.074,0.0
49730.0,STARLINK-3249,PAYLOAD,2023-02-21 12:59:15,15.08850216,0.0001359,53.2167,111.7612,102.5231,257.5914,0.00068037,0.0001056,0.0,0 STARLINK-3249,1 49730U 21115G   23052.54115616  .00010560  00000-0  68037-3 0  9993,2 49730  53.2167 111.7612 0001359 102.5231 257.5914 15.08850216 68609,6917.849,95.437,540.654,538.774,0.0
49730.0,STARLINK-3249,PAYLOAD,2023-02-21 20:56:11,15.08855957,4.3e-05,53.2162,110.2743,172.4896,187.6102,0.00081447,0.00012704,0.0,0 STARLINK-3249,1 49730U 21115G   23052.87235038  .00012704  00000-0  81447-3 0  9992,2 49730  53.2162 110.2743 0000430 172.4896 187.6102 15.08855957 67546,6917.832,95.437,539.994,539.399,0.0
49730.0,STARLINK-3249,PAYLOAD,2023-02-22 03:17:44,15.08844897,0.0001572,53.2144,109.0858,94.0812,266.036,0.0004754,7.287e-05,0.0,0 STARLINK-3249,1 49730U 21115G   23053.13731804  .00007287  00000-0  47540-3 0  9990,2 49730  53.2144 109.0858 0001572  94.0812 266.0360 15.08844897 68690,6917.865,95.437,540.818,538.643,0.0
49730.0,STARLINK-3249,PAYLOAD,2023-02-22 11:14:39,15.08848829,0.0001285,53.2163,107.5989,98.5913,261.5224,0.00049566,7.611e-05,0.0,0 STARLINK-3249,1 49730U 21115G   23053.46851650  .00007611  00000-0  49566-3 0  9999,2 49730  53.2163 107.5989 0001285  98.5913 261.5224 15.08848829 67632,6917.853,95.437,540.607,538.829,0.0
49730.0,STARLINK-3249,PAYLOAD,2023-02-22 20:46:58,15.08832756,8.18e-05,53.2165,105.8137,105.1935,254.9147,-8.0633e-05,-1.57e-05,0.0,0 STARLINK-3249,1 49730U 21115G   23053.86595751 -.00001570  00000-0 -80633-4 0  9991,2 49730  53.2165 105.8137 0000818 105.1935 254.9147 15.08832756 67698,6917.903,95.438,540.333,539.202,0.0
49730.0,STARLINK-3249,PAYLOAD,2023-02-23 03:08:31,15.08834209,0.000118,53.2165,104.6239,97.7209,262.3917,0.00019922,2.884e-05,0.0,0 STARLINK-3249,1 49730U 21115G   23054.13092099  .00002884  00000-0  19922-3 0  9998,2 49730  53.2165 104.6239 0001180  97.7209 262.3917 15.08834209 68842,6917.898,95.438,540.579,538.947,0.0
49730.0,STARLINK-3249,PAYLOAD,2023-02-23 09:30:04,15.0884704,0.0001392,53.2158,103.4351,88.0596,272.0555,0.0017617,0.00027866,0.0,0 STARLINK-3249,1 49730U 21115G   23054.39588201  .00027866  00000-0  17617-2 0  9996,2 49730  53.2158 103.4351 0001392  88.0596 272.0555 15.08847040 68880,6917.859,95.437,540.687,538.761,0.0
49730.0,STARLINK-3249,PAYLOAD,2023-02-23 20:37:46,15.08848932,0.0001401,53.2152,101.3545,79.9298,280.1852,0.0011341,0.00017812,0.0,0 STARLINK-3249,1 49730U 21115G   23054.85956272  .00017812  00000-0  11341-2 0  9992,2 49730  53.2152 101.3545 0001401  79.9298 280.1852 15.08848932 68954,6917.853,95.437,540.687,538.749,0.0
49730.0,STARLINK-3249,PAYLOAD,2023-02-24 06:10:06,15.08796784,6.18e-05,53.2164,99.5691,89.0139,271.0924,-0.0005102,-8.388e-05,0.0,0 STARLINK-3249,1 49730U 21115G   23055.25701497 -.00008388  00000-0 -51020-3 0  9993,2 49730  53.2164  99.5691 0000618  89.0139 271.0924 15.08796784 69016,6918.012,95.44,540.305,539.45,0.0
49730.0,STARLINK-3249,PAYLOAD,2023-02-24 09:20:52,15.08798226,0.0001152,53.2166,98.9728,115.3983,244.7129,-0.0004859,-8.004e-05,0.0,0 STARLINK-3249,1 49730U 21115G   23055.38949891 -.00008004  00000-0 -48590-3 0  9992,2 49730  53.2166  98.9728 0001152 115.3983 244.7129 15.08798226 67921,6918.008,95.44,540.67,539.076,0.0
49730.0,STARLINK-3249,PAYLOAD,2023-02-24 14:07:02,15.08821172,0.0001297,53.2165,98.081,108.2391,251.8743,0.00053965,8.307e-05,0.0,0 STARLINK-3249,1 49730U 21115G   23055.58822154  .00008307  00000-0  53965-3 0  9992,2 49730  53.2165  98.0810 0001297 108.2391 251.8743 15.08821172 69062,6917.938,95.439,540.7,538.906,0.0
49730.0,STARLINK-3249,PAYLOAD,2023-02-25 12:22:26,15.08862855,0.0001318,53.2162,93.9199,79.5163,280.5978,0.0012301,0.00019355,0.0,0 STARLINK-3249,1 49730U 21115G   23056.51558127  .00019355  00000-0  12301-2 0  9995,2 49730  53.2162  93.9199 0001318  79.5163 280.5978 15.08862855 69202,6917.811,95.436,540.587,538.764,0.0
49730.0,STARLINK-3249,PAYLOAD,2023-02-25 13:57:49,15.08867206,0.00014,53.216,93.6227,89.1658,270.9494,0.0012694,0.00019987,0.0,0 STARLINK-3249,1 49730U 21115G   23056.58181966  .00019987  00000-0  12694-2 0  9991,2 49730  53.2160  93.6227 0001400  89.1658 270.9494 15.08867206 68106,6917.797,95.436,540.631,538.694,0.0
49730.0,STARLINK-3249,PAYLOAD,2023-02-26 02:40:53,15.08862125,0.0002289,53.2175,91.2408,98.7753,261.3498,0.00095283,0.00014918,0.0,0 STARLINK-3249,1 49730U 21115G   23057.11173323  .00014918  00000-0  95283-3 0  9994,2 49730  53.2175  91.2408 0002289  98.7753 261.3498 15.08862125 69299,6917.813,95.436,541.261,538.094,0.0
49730.0,STARLINK-3249,PAYLOAD,2023-02-26 09:02:25,15.08871173,0.0001772,53.2179,90.0533,111.5421,248.576,0.0010764,0.00016899,0.0,0 STARLINK-3249,1 49730U 21115G   23057.37668792  .00016899  00000-0  10764-2 0  9991,2 49730  53.2179  90.0533 0001772 111.5421 248.5760 15.08871173 68225,6917.785,95.436,540.876,538.424,0.0
49730.0,STARLINK-3249,PAYLOAD,2023-02-26 18:34:44,15.08852057,0.0001971,53.2178,88.2682,83.5938,276.5278,4.6404e-05,4.51e-06,0.0,0 STARLINK-3249,1 49730U 21115G   23057.77412722  .00000451  00000-0  46404-4 0  9994,2 49730  53.2178  88.2682 0001971  83.5938 276.5278 15.08852057 69394,6917.844,95.437,541.072,538.345,0.0
49730.0,STARLINK-3249,PAYLOAD,2023-02-27 12:03:59,15.08845521,0.0001622,53.2175,84.9992,92.1607,267.9571,0.001221,0.00019201,0.0,0 STARLINK-3249,1 49730U 21115G   23058.50276820  .00019201  00000-0  12210-2 0  9992,2 49730  53.2175  84.9992 0001622  92.1607 267.9571 15.08845521 69501,6917.864,95.437,540.851,538.606,0.0
49730.0,STARLINK-3249,PAYLOAD,2023-02-27 18:25:31,15.08870071,0.0001391,53.2174,83.8095,98.7044,261.4105,0.0018697,0.00029618,0.0,0 STARLINK-3249,1 49730U 21115G   23058.76772694  .00029618  00000-0  18697-2 0  9998,2 49730  53.2174  83.8095 0001391  98.7044 261.4105 15.08870071 68433,6917.788,95.436,540.616,538.691,0.0
49730.0,STARLINK-3249,PAYLOAD,2023-02-28 07:08:36,15.08853259,0.0001357,53.2175,81.431,89.7295,270.3852,0.0013927,0.00021954,0.0,0 STARLINK-3249,1 49730U 21115G   23059.29764919  .00021954  00000-0  13927-2 0  9994,2 49730  53.2175  81.4310 0001357  89.7295 270.3852 15.08853259 69627,6917.84,95.437,540.644,538.766,0.0
